[{"OBJECT_NAME":"OBJECT L","OBJECT_ID":"2024-205L","EPOCH":"2026-03-07T03:22:40.585728","MEAN_MOTION":15.10822925,"ECCENTRICITY":0.00547724,"INCLINATION":97.4213,"RA_OF_ASC_NODE":140.2188,"ARG_OF_PERICENTER":346.2042,"MEAN_ANOMALY":13.7688,"EPHEMERIS_TYPE":0,"CLASSIFICATION_TYPE":"U","NORAD_CAT_ID":61904,"ELEMENT_SET_NO":999,"REV_AT_EPOCH":7282,"BSTAR":0.00079283043,"MEAN_MOTION_DOT":0.00013606,"MEAN_MOTION_DDOT":0},{"OBJECT_NAME":"STARLINK-36056","OBJECT_ID":"2025-304Q","EPOCH":"2026-03-09T17:00:20.625120","MEAN_MOTION":14.98335753,"ECCENTRICITY":0.00031565,"INCLINATION":70.0025,"RA_OF_ASC_NODE":174.5619,"ARG_OF_PERICENTER":259.5658,"MEAN_ANOMALY":100.5145,"EPHEMERIS_TYPE":0,"CLASSIFICATION_TYPE":"U","NORAD_CAT_ID":67206,"ELEMENT_SET_NO":999,"REV_AT_EPOCH":1385,"BSTAR":0.00033379983,"MEAN_MOTION_DOT":3.893e-5,"MEAN_MOTION_DDOT":0}]
