2024-205L               
1 61904U 24205L   26066.14074752  .00013606  00000+0  79283-3 0  9990
2 61904  97.4213 140.2188 0054772 346.2042  13.7688 15.10822925 72825
STARLINK-36056          
1 67206U 25304Q   26068.70857205  .00003893  00000+0  33380-3 0  9993
2 67206  70.0025 174.5619 0003156 259.5658 100.5145 14.98335753 13856
